[{"OBJECT_NAME":"SL-14 R/B","OBJECT_ID":"1986-006B","EPOCH":"2026-03-27T19:49:07.836960","MEAN_MOTION":14.8684261,"ECCENTRICITY":0.0075727,"INCLINATION":82.525,"RA_OF_ASC_NODE":242.6639,"ARG_OF_PERICENTER":211.6515,"MEAN_ANOMALY":148.0138,"EPHEMERIS_TYPE":0,"CLASSIFICATION_TYPE":"U","NORAD_CAT_ID":16496,"ELEMENT_SET_NO":999,"REV_AT_EPOCH":15190,"BSTAR":9.5416e-5,"MEAN_MOTION_DOT":9.23e-6,"MEAN_MOTION_DDOT":0},{"OBJECT_NAME":"COSMOS 1743","OBJECT_ID":"1986-034A","EPOCH":"2026-03-27T20:49:45.168960","MEAN_MOTION":15.60021234,"ECCENTRICITY":0.0004092,"INCLINATION":82.53,"RA_OF_ASC_NODE":54.73,"ARG_OF_PERICENTER":174.1082,"MEAN_ANOMALY":186.0223,"EPHEMERIS_TYPE":0,"CLASSIFICATION_TYPE":"U","NORAD_CAT_ID":16719,"ELEMENT_SET_NO":999,"REV_AT_EPOCH":18308,"BSTAR":0.00054255,"MEAN_MOTION_DOT":0.00044051,"MEAN_MOTION_DDOT":0},{"OBJECT_NAME":"SL-14 R/B","OBJECT_ID":"1986-046B","EPOCH":"2026-03-27T15:45:06.578496","MEAN_MOTION":14.85607071,"ECCENTRICITY":0.0023451,"INCLINATION":82.4801,"RA_OF_ASC_NODE":63.2009,"ARG_OF_PERICENTER":164.8672,"MEAN_ANOMALY":195.3251,"EPHEMERIS_TYPE":0,"CLASSIFICATION_TYPE":"U","NORAD_CAT_ID":16792,"ELEMENT_SET_NO":999,"REV_AT_EPOCH":12907,"BSTAR":5.2018e-5,"MEAN_MOTION_DOT":4.77e-6,"MEAN_MOTION_DDOT":0},{"OBJECT_NAME":"SL-14 R/B","OBJECT_ID":"1986-055B","EPOCH":"2026-03-27T19:21:54.602208","MEAN_MOTION":14.85658008,"ECCENTRICITY":0.0017304,"INCLINATION":82.5171,"RA_OF_ASC_NODE":109.6412,"ARG_OF_PERICENTER":272.4809,"MEAN_ANOMALY":260.7414,"EPHEMERIS_TYPE":0,"CLASSIFICATION_TYPE":"U","NORAD_CAT_ID":16882,"ELEMENT_SET_NO":999,"REV_AT_EPOCH":12205,"BSTAR":4.3509e-5,"MEAN_MOTION_DOT":4.02e-6,"MEAN_MOTION_DDOT":0},{"OBJECT_NAME":"AJISAI (EGS)","OBJECT_ID":"1986-061A","EPOCH":"2026-03-27T20:56:17.784384","MEAN_MOTION":12.44515638,"ECCENTRICITY":0.0011329,"INCLINATION":50.011,"RA_OF_ASC_NODE":37.4342,"ARG_OF_PERICENTER":333.8943,"MEAN_ANOMALY":129.3651,"EPHEMERIS_TYPE":0,"CLASSIFICATION_TYPE":"U","NORAD_CAT_ID":16908,"ELEMENT_SET_NO":999,"REV_AT_EPOCH":47026,"BSTAR":1.6499e-5,"MEAN_MOTION_DOT":-9.5e-7,"MEAN_MOTION_DDOT":0},{"OBJECT_NAME":"SL-14 R/B","OBJECT_ID":"1987-024B","EPOCH":"2026-03-27T16:23:46.343328","MEAN_MOTION":14.86148588,"ECCENTRICITY":0.0017708,"INCLINATION":82.5251,"RA_OF_ASC_NODE":75.8464,"ARG_OF_PERICENTER":196.3928,"MEAN_ANOMALY":163.6718,"EPHEMERIS_TYPE":0,"CLASSIFICATION_TYPE":"U","NORAD_CAT_ID":17567,"ELEMENT_SET_NO":999,"REV_AT_EPOCH":9080,"BSTAR":5.0011e-5,"MEAN_MOTION_DOT":4.64e-6,"MEAN_MOTION_DDOT":0},{"OBJECT_NAME":"COSMOS 1833","OBJECT_ID":"1987-027A","EPOCH":"2026-03-27T20:10:52.457952","MEAN_MOTION":14.13047939,"ECCENTRICITY":0.0023324,"INCLINATION":70.9173,"RA_OF_ASC_NODE":287.8676,"ARG_OF_PERICENTER":187.8769,"MEAN_ANOMALY":172.1989,"EPHEMERIS_TYPE":0,"CLASSIFICATION_TYPE":"U","NORAD_CAT_ID":17589,"ELEMENT_SET_NO":999,"REV_AT_EPOCH":1288,"BSTAR":-0.00012297,"MEAN_MOTION_DOT":-2.78e-6,"MEAN_MOTION_DDOT":0},{"OBJECT_NAME":"SL-16 R/B","OBJECT_ID":"1987-027B","EPOCH":"2026-03-27T18:17:08.314656","MEAN_MOTION":14.17165537,"ECCENTRICITY":0.0002848,"INCLINATION":71.0013,"RA_OF_ASC_NODE":238.4084,"ARG_OF_PERICENTER":98.5493,"MEAN_ANOMALY":261.5954,"EPHEMERIS_TYPE":0,"CLASSIFICATION_TYPE":"U","NORAD_CAT_ID":17590,"ELEMENT_SET_NO":999,"REV_AT_EPOCH":1790,"BSTAR":-3.2699e-5,"MEAN_MOTION_DOT":-1.14e-6,"MEAN_MOTION_DDOT":0},{"OBJECT_NAME":"SL-14 R/B","OBJECT_ID":"1987-038B","EPOCH":"2026-03-27T19:43:50.786976","MEAN_MOTION":14.8538494,"ECCENTRICITY":0.0020732,"INCLINATION":82.4978,"RA_OF_ASC_NODE":279.7214,"ARG_OF_PERICENTER":103.7367,"MEAN_ANOMALY":256.6159,"EPHEMERIS_TYPE":0,"CLASSIFICATION_TYPE":"U","NORAD_CAT_ID":17912,"ELEMENT_SET_NO":999,"REV_AT_EPOCH":8192,"BSTAR":4.9605e-5,"MEAN_MOTION_DOT":4.53e-6,"MEAN_MOTION_DDOT":0},{"OBJECT_NAME":"COSMOS 1844","OBJECT_ID":"1987-041A","EPOCH":"2026-03-27T20:33:43.138656","MEAN_MOTION":14.14555766,"ECCENTRICITY":0.0030974,"INCLINATION":70.9013,"RA_OF_ASC_NODE":355.858,"ARG_OF_PERICENTER":351.3622,"MEAN_ANOMALY":8.6962,"EPHEMERIS_TYPE":0,"CLASSIFICATION_TYPE":"U","NORAD_CAT_ID":17973,"ELEMENT_SET_NO":999,"REV_AT_EPOCH":615,"BSTAR":0.000207,"MEAN_MOTION_DOT":3.51e-6,"MEAN_MOTION_DDOT":0},{"OBJECT_NAME":"SL-14 R/B","OBJECT_ID":"1987-055B","EPOCH":"2026-03-27T17:28:55.945056","MEAN_MOTION":14.85646939,"ECCENTRICITY":0.0019588,"INCLINATION":82.5009,"RA_OF_ASC_NODE":332.0332,"ARG_OF_PERICENTER":317.337,"MEAN_ANOMALY":42.6324,"EPHEMERIS_TYPE":0,"CLASSIFICATION_TYPE":"U","NORAD_CAT_ID":18153,"ELEMENT_SET_NO":999,"REV_AT_EPOCH":7261,"BSTAR":4.1822e-5,"MEAN_MOTION_DOT":3.87e-6,"MEAN_MOTION_DDOT":0},{"OBJECT_NAME":"COSMOS 1867","OBJECT_ID":"1987-060A","EPOCH":"2026-03-27T19:33:22.272768","MEAN_MOTION":14.31505757,"ECCENTRICITY":0.0014795,"INCLINATION":65.0092,"RA_OF_ASC_NODE":255.9431,"ARG_OF_PERICENTER":279.7063,"MEAN_ANOMALY":80.235,"EPHEMERIS_TYPE":0,"CLASSIFICATION_TYPE":"U","NORAD_CAT_ID":18187,"ELEMENT_SET_NO":999,"REV_AT_EPOCH":2253,"BSTAR":3.6848e-5,"MEAN_MOTION_DOT":-2.0e-8,"MEAN_MOTION_DDOT":0},{"OBJECT_NAME":"SL-14 R/B","OBJECT_ID":"1988-001B","EPOCH":"2026-03-27T17:24:03.039552","MEAN_MOTION":14.85547047,"ECCENTRICITY":0.001824,"INCLINATION":82.5162,"RA_OF_ASC_NODE":178.4027,"ARG_OF_PERICENTER":174.0463,"MEAN_ANOMALY":186.0974,"EPHEMERIS_TYPE":0,"CLASSIFICATION_TYPE":"U","NORAD_CAT_ID":18749,"ELEMENT_SET_NO":999,"REV_AT_EPOCH":4470,"BSTAR":4.9508e-5,"MEAN_MOTION_DOT":4.53e-6,"MEAN_MOTION_DDOT":0},{"OBJECT_NAME":"COSMOS 1933","OBJECT_ID":"1988-020A","EPOCH":"2026-03-27T20:25:15.213792","MEAN_MOTION":15.18150554,"ECCENTRICITY":0.0005145,"INCLINATION":82.5122,"RA_OF_ASC_NODE":232.9388,"ARG_OF_PERICENTER":127.698,"MEAN_ANOMALY":232.4721,"EPHEMERIS_TYPE":0,"CLASSIFICATION_TYPE":"U","NORAD_CAT_ID":18958,"ELEMENT_SET_NO":999,"REV_AT_EPOCH":5298,"BSTAR":0.00020656,"MEAN_MOTION_DOT":4.248e-5,"MEAN_MOTION_DDOT":0},{"OBJECT_NAME":"SL-3 R/B","OBJECT_ID":"1988-032B","EPOCH":"2026-03-27T20:04:01.377120","MEAN_MOTION":15.20102569,"ECCENTRICITY":0.0026232,"INCLINATION":97.5211,"RA_OF_ASC_NODE":70.0282,"ARG_OF_PERICENTER":166.6826,"MEAN_ANOMALY":193.5107,"EPHEMERIS_TYPE":0,"CLASSIFICATION_TYPE":"U","NORAD_CAT_ID":19046,"ELEMENT_SET_NO":999,"REV_AT_EPOCH":5486,"BSTAR":0.00024113,"MEAN_MOTION_DOT":5.185e-5,"MEAN_MOTION_DDOT":0},{"OBJECT_NAME":"SL-16 R/B","OBJECT_ID":"1988-039B","EPOCH":"2026-03-27T05:50:50.820864","MEAN_MOTION":14.1961847,"ECCENTRICITY":0.0023594,"INCLINATION":71.0164,"RA_OF_ASC_NODE":31.428,"ARG_OF_PERICENTER":309.1689,"MEAN_ANOMALY":50.7339,"EPHEMERIS_TYPE":0,"CLASSIFICATION_TYPE":"U","NORAD_CAT_ID":19120,"ELEMENT_SET_NO":999,"REV_AT_EPOCH":96087,"BSTAR":9.5393e-5,"MEAN_MOTION_DOT":1.54e-6,"MEAN_MOTION_DDOT":0},{"OBJECT_NAME":"COSMOS 1953","OBJECT_ID":"1988-050A","EPOCH":"2026-03-27T13:28:12.226368","MEAN_MOTION":15.28796422,"ECCENTRICITY":0.001243,"INCLINATION":82.5082,"RA_OF_ASC_NODE":140.2702,"ARG_OF_PERICENTER":66.9057,"MEAN_ANOMALY":293.3491,"EPHEMERIS_TYPE":0,"CLASSIFICATION_TYPE":"U","NORAD_CAT_ID":19210,"ELEMENT_SET_NO":999,"REV_AT_EPOCH":4051,"BSTAR":0.0002323,"MEAN_MOTION_DOT":6.547e-5,"MEAN_MOTION_DDOT":0}]
