SL-14 R/B               
1 16496U 86006B   26086.82578515  .00000923  00000+0  95416-4 0  9991
2 16496  82.5250 242.6639 0075727 211.6515 148.0138 14.86842610151902
COSMOS 1743             
1 16719U 86034A   26086.86788390  .00044051  00000+0  54255-3 0  9993
2 16719  82.5300  54.7300 0004092 174.1082 186.0223 15.60021234183087
SL-14 R/B               
1 16792U 86046B   26086.65632614  .00000477  00000+0  52018-4 0  9991
2 16792  82.4801  63.2009 0023451 164.8672 195.3251 14.85607071129073
SL-14 R/B               
1 16882U 86055B   26086.80688197  .00000402  00000+0  43509-4 0  9998
2 16882  82.5171 109.6412 0017304 272.4809 260.7414 14.85658008122050
AJISAI (EGS)            
1 16908U 86061A   26086.87242806 -.00000095  00000+0  16499-4 0  9991
2 16908  50.0110  37.4342 0011329 333.8943 129.3651 12.44515638470260
SL-14 R/B               
1 17567U 87024B   26086.68317527  .00000464  00000+0  50011-4 0  9992
2 17567  82.5251  75.8464 0017708 196.3928 163.6718 14.86148588 90808
COSMOS 1833             
1 17589U 87027A   26086.84088493 -.00000278  00000+0 -12297-3 0  9992
2 17589  70.9173 287.8676 0023324 187.8769 172.1989 14.13047939 12880
SL-16 R/B               
1 17590U 87027B   26086.76190179 -.00000114  00000+0 -32699-4 0  9998
2 17590  71.0013 238.4084 0002848  98.5493 261.5954 14.17165537 17904
SL-14 R/B               
1 17912U 87038B   26086.82211559  .00000453  00000+0  49605-4 0  9990
2 17912  82.4978 279.7214 0020732 103.7367 256.6159 14.85384940 81923
COSMOS 1844             
1 17973U 87041A   26086.85674929  .00000351  00000+0  20700-3 0  9999
2 17973  70.9013 355.8580 0030974 351.3622   8.6962 14.14555766  6155
SL-14 R/B               
1 18153U 87055B   26086.72842529  .00000387  00000+0  41822-4 0  9992
2 18153  82.5009 332.0332 0019588 317.3370  42.6324 14.85646939 72617
COSMOS 1867             
1 18187U 87060A   26086.81484112 -.00000002  00000+0  36848-4 0  9992
2 18187  65.0092 255.9431 0014795 279.7063  80.2350 14.31505757 22536
SL-14 R/B               
1 18749U 88001B   26086.72503518  .00000453  00000+0  49508-4 0  9990
2 18749  82.5162 178.4027 0018240 174.0463 186.0974 14.85547047 44709
COSMOS 1933             
1 18958U 88020A   26086.85087053  .00004248  00000+0  20656-3 0  9996
2 18958  82.5122 232.9388 0005145 127.6980 232.4721 15.18150554 52986
SL-3 R/B                
1 19046U 88032B   26086.83612705  .00005185  00000+0  24113-3 0  9997
2 19046  97.5211  70.0282 0026232 166.6826 193.5107 15.20102569 54866
SL-16 R/B               
1 19120U 88039B   26086.24364376  .00000154  00000+0  95393-4 0  9990
2 19120  71.0164  31.4280 0023594 309.1689  50.7339 14.19618470960879
COSMOS 1953             
1 19210U 88050A   26086.56125262  .00006547  00000+0  23230-3 0  9999
2 19210  82.5082 140.2702 0012430  66.9057 293.3491 15.28796422 40516
